[{"OBJECT_NAME":"SHIYAN-33","OBJECT_ID":"2026-064A","EPOCH":"2026-04-15T17:28:48.574272","MEAN_MOTION":15.23336535,"ECCENTRICITY":0.0014787,"INCLINATION":97.4646,"RA_OF_ASC_NODE":181.5733,"ARG_OF_PERICENTER":160.5713,"MEAN_ANOMALY":199.6091,"EPHEMERIS_TYPE":0,"CLASSIFICATION_TYPE":"U","NORAD_CAT_ID":68405,"ELEMENT_SET_NO":999,"REV_AT_EPOCH":298,"BSTAR":0.00011814,"MEAN_MOTION_DOT":2.741e-5,"MEAN_MOTION_DDOT":0},{"OBJECT_NAME":"LPNTSAT-001 (IOD-1)","OBJECT_ID":"2026-065A","EPOCH":"2026-04-15T14:28:55.780032","MEAN_MOTION":15.18326473,"ECCENTRICITY":0.0015969,"INCLINATION":97.4108,"RA_OF_ASC_NODE":347.4191,"ARG_OF_PERICENTER":217.7011,"MEAN_ANOMALY":142.3106,"EPHEMERIS_TYPE":0,"CLASSIFICATION_TYPE":"U","NORAD_CAT_ID":68408,"ELEMENT_SET_NO":999,"REV_AT_EPOCH":276,"BSTAR":7.5505e-5,"MEAN_MOTION_DOT":1.486e-5,"MEAN_MOTION_DDOT":0},{"OBJECT_NAME":"LPNTSAT-002 (IOD-2)","OBJECT_ID":"2026-065B","EPOCH":"2026-04-15T14:28:17.046048","MEAN_MOTION":15.18434982,"ECCENTRICITY":0.0013093,"INCLINATION":97.4096,"RA_OF_ASC_NODE":347.417,"ARG_OF_PERICENTER":212.0662,"MEAN_ANOMALY":147.9777,"EPHEMERIS_TYPE":0,"CLASSIFICATION_TYPE":"U","NORAD_CAT_ID":68409,"ELEMENT_SET_NO":999,"REV_AT_EPOCH":274,"BSTAR":0.0001789,"MEAN_MOTION_DOT":3.623e-5,"MEAN_MOTION_DDOT":0},{"OBJECT_NAME":"ELECTRON KICK STAGE R/B","OBJECT_ID":"2026-065D","EPOCH":"2026-04-15T19:09:12.347712","MEAN_MOTION":16.3407245,"ECCENTRICITY":0.0044365,"INCLINATION":97.4016,"RA_OF_ASC_NODE":349.808,"ARG_OF_PERICENTER":310.0388,"MEAN_ANOMALY":49.7019,"EPHEMERIS_TYPE":0,"CLASSIFICATION_TYPE":"U","NORAD_CAT_ID":68411,"ELEMENT_SET_NO":999,"REV_AT_EPOCH":294,"BSTAR":0.00032425,"MEAN_MOTION_DOT":0.04117603,"MEAN_MOTION_DDOT":2.6181e-6},{"OBJECT_NAME":"XINZHENGCHENG-01","OBJECT_ID":"2026-066A","EPOCH":"2026-04-15T20:08:12.300000","MEAN_MOTION":14.88351261,"ECCENTRICITY":0.0027534,"INCLINATION":84.9625,"RA_OF_ASC_NODE":267.4112,"ARG_OF_PERICENTER":109.2903,"MEAN_ANOMALY":251.1303,"EPHEMERIS_TYPE":0,"CLASSIFICATION_TYPE":"U","NORAD_CAT_ID":68412,"ELEMENT_SET_NO":999,"REV_AT_EPOCH":245,"BSTAR":3.4834e-5,"MEAN_MOTION_DOT":3.55e-6,"MEAN_MOTION_DDOT":0},{"OBJECT_NAME":"2026-066D","OBJECT_ID":"2026-066D","EPOCH":"2026-04-15T20:07:22.615680","MEAN_MOTION":14.88427931,"ECCENTRICITY":0.0027534,"INCLINATION":84.9624,"RA_OF_ASC_NODE":267.4106,"ARG_OF_PERICENTER":109.8314,"MEAN_ANOMALY":250.5881,"EPHEMERIS_TYPE":0,"CLASSIFICATION_TYPE":"U","NORAD_CAT_ID":68415,"ELEMENT_SET_NO":999,"REV_AT_EPOCH":245,"BSTAR":9.8086e-5,"MEAN_MOTION_DOT":9.46e-6,"MEAN_MOTION_DDOT":0},{"OBJECT_NAME":"TRANSPORTER-16 OBJECT A","OBJECT_ID":"2026-067A","EPOCH":"2026-04-14T03:06:40.749120","MEAN_MOTION":15.18652635,"ECCENTRICITY":0.0003897,"INCLINATION":97.4492,"RA_OF_ASC_NODE":63.5723,"ARG_OF_PERICENTER":114.6467,"MEAN_ANOMALY":245.5173,"EPHEMERIS_TYPE":0,"CLASSIFICATION_TYPE":"U","NORAD_CAT_ID":68416,"ELEMENT_SET_NO":999,"REV_AT_EPOCH":222,"BSTAR":0.00020619,"MEAN_MOTION_DOT":4.204e-5,"MEAN_MOTION_DDOT":0},{"OBJECT_NAME":"TRANSPORTER-16 OBJECT B","OBJECT_ID":"2026-067B","EPOCH":"2026-04-14T03:07:28.409952","MEAN_MOTION":15.18589786,"ECCENTRICITY":0.00037245,"INCLINATION":97.4513,"RA_OF_ASC_NODE":63.5748,"ARG_OF_PERICENTER":116.5386,"MEAN_ANOMALY":243.623,"EPHEMERIS_TYPE":0,"CLASSIFICATION_TYPE":"U","NORAD_CAT_ID":68417,"ELEMENT_SET_NO":999,"REV_AT_EPOCH":222,"BSTAR":0.0001896307,"MEAN_MOTION_DOT":3.854e-5,"MEAN_MOTION_DDOT":0},{"OBJECT_NAME":"TRANSPORTER-16 OBJECT C","OBJECT_ID":"2026-067C","EPOCH":"2026-04-14T03:08:21.791328","MEAN_MOTION":15.18499519,"ECCENTRICITY":0.0003545,"INCLINATION":97.4531,"RA_OF_ASC_NODE":63.5776,"ARG_OF_PERICENTER":128.9478,"MEAN_ANOMALY":231.2072,"EPHEMERIS_TYPE":0,"CLASSIFICATION_TYPE":"U","NORAD_CAT_ID":68418,"ELEMENT_SET_NO":999,"REV_AT_EPOCH":222,"BSTAR":0.00014505,"MEAN_MOTION_DOT":2.924e-5,"MEAN_MOTION_DDOT":0},{"OBJECT_NAME":"TRANSPORTER-16 OBJECT D","OBJECT_ID":"2026-067D","EPOCH":"2026-04-14T03:08:11.951232","MEAN_MOTION":15.18515636,"ECCENTRICITY":0.0003341,"INCLINATION":97.449,"RA_OF_ASC_NODE":63.5703,"ARG_OF_PERICENTER":108.0089,"MEAN_ANOMALY":252.151,"EPHEMERIS_TYPE":0,"CLASSIFICATION_TYPE":"U","NORAD_CAT_ID":68419,"ELEMENT_SET_NO":999,"REV_AT_EPOCH":222,"BSTAR":8.937e-5,"MEAN_MOTION_DOT":1.777e-5,"MEAN_MOTION_DDOT":0},{"OBJECT_NAME":"TRANSPORTER-16 OBJECT E","OBJECT_ID":"2026-067E","EPOCH":"2026-04-14T03:08:04.747200","MEAN_MOTION":15.18592725,"ECCENTRICITY":0.0003582,"INCLINATION":97.4433,"RA_OF_ASC_NODE":63.5619,"ARG_OF_PERICENTER":97.4122,"MEAN_ANOMALY":262.7519,"EPHEMERIS_TYPE":0,"CLASSIFICATION_TYPE":"U","NORAD_CAT_ID":68420,"ELEMENT_SET_NO":999,"REV_AT_EPOCH":222,"BSTAR":0.00028301,"MEAN_MOTION_DOT":5.787e-5,"MEAN_MOTION_DDOT":0},{"OBJECT_NAME":"TRANSPORTER-16 OBJECT F","OBJECT_ID":"2026-067F","EPOCH":"2026-04-14T03:10:33.867552","MEAN_MOTION":15.18330052,"ECCENTRICITY":0.00028829,"INCLINATION":97.4464,"RA_OF_ASC_NODE":63.5641,"ARG_OF_PERICENTER":98.4001,"MEAN_ANOMALY":261.756,"EPHEMERIS_TYPE":0,"CLASSIFICATION_TYPE":"U","NORAD_CAT_ID":68421,"ELEMENT_SET_NO":999,"REV_AT_EPOCH":222,"BSTAR":0.00013532411,"MEAN_MOTION_DOT":2.71e-5,"MEAN_MOTION_DDOT":0},{"OBJECT_NAME":"TRANSPORTER-16 OBJECT G","OBJECT_ID":"2026-067G","EPOCH":"2026-04-14T03:11:01.273632","MEAN_MOTION":15.18299949,"ECCENTRICITY":0.00028119,"INCLINATION":97.4431,"RA_OF_ASC_NODE":63.5576,"ARG_OF_PERICENTER":94.5078,"MEAN_ANOMALY":265.6477,"EPHEMERIS_TYPE":0,"CLASSIFICATION_TYPE":"U","NORAD_CAT_ID":68422,"ELEMENT_SET_NO":999,"REV_AT_EPOCH":222,"BSTAR":0.00011720287,"MEAN_MOTION_DOT":2.336e-5,"MEAN_MOTION_DDOT":0},{"OBJECT_NAME":"TRANSPORTER-16 OBJECT H","OBJECT_ID":"2026-067H","EPOCH":"2026-04-14T03:11:47.914080","MEAN_MOTION":15.1825008,"ECCENTRICITY":0.0002491,"INCLINATION":97.445,"RA_OF_ASC_NODE":63.5604,"ARG_OF_PERICENTER":104.0414,"MEAN_ANOMALY":256.1097,"EPHEMERIS_TYPE":0,"CLASSIFICATION_TYPE":"U","NORAD_CAT_ID":68423,"ELEMENT_SET_NO":999,"REV_AT_EPOCH":222,"BSTAR":0.00013986,"MEAN_MOTION_DOT":2.796e-5,"MEAN_MOTION_DDOT":0},{"OBJECT_NAME":"TRANSPORTER-16 OBJECT J","OBJECT_ID":"2026-067J","EPOCH":"2026-04-14T03:19:08.105664","MEAN_MOTION":15.1773133,"ECCENTRICITY":5.28e-6,"INCLINATION":97.4469,"RA_OF_ASC_NODE":63.5565,"ARG_OF_PERICENTER":204.7381,"MEAN_ANOMALY":155.385,"EPHEMERIS_TYPE":0,"CLASSIFICATION_TYPE":"U","NORAD_CAT_ID":68424,"ELEMENT_SET_NO":999,"REV_AT_EPOCH":222,"BSTAR":0.00016362833,"MEAN_MOTION_DOT":3.234e-5,"MEAN_MOTION_DDOT":0}]
