SHIYAN-33
1 68405U 26064A   26105.72833998  .00002741  00000+0  11814-3 0  9995
2 68405  97.4646 181.5733 0014787 160.5713 199.6091 15.23336535  2989
LPNTSAT-001 (IOD-1)
1 68408U 26065A   26105.60342338  .00001486  00000+0  75505-4 0  9992
2 68408  97.4108 347.4191 0015969 217.7011 142.3106 15.18326473  2767
LPNTSAT-002 (IOD-2)
1 68409U 26065B   26105.60297507  .00003623  00000+0  17890-3 0  9997
2 68409  97.4096 347.4170 0013093 212.0662 147.9777 15.18434982  2745
XINZHENGCHENG-01
1 68412U 26066A   26105.83903125  .00000355  00000+0  34834-4 0  9994
2 68412  84.9625 267.4112 0027534 109.2903 251.1303 14.88351261  2450
TRANSPORTER-16 OBJECT A
1 68416U 26067A   26104.12963830  .00004204  00000+0  20619-3 0  9991
2 68416  97.4492  63.5723 0003897 114.6467 245.5173 15.18652635  2229
TRANSPORTER-16 OBJECT B
1 68417U 26067B   26104.13018993  .00003854  00000+0  18963-3 0  9993
2 68417  97.4513  63.5748 0003724 116.5386 243.6230 15.18589786  2220
TRANSPORTER-16 OBJECT C
1 68418U 26067C   26104.13080777  .00002924  00000+0  14505-3 0  9998
2 68418  97.4531  63.5776 0003545 128.9478 231.2072 15.18499519  2223
TRANSPORTER-16 OBJECT D
1 68419U 26067D   26104.13069388  .00001777  00000+0  89370-4 0  9992
2 68419  97.4490  63.5703 0003341 108.0089 252.1510 15.18515636  2227
TRANSPORTER-16 OBJECT E
1 68420U 26067E   26104.13061050  .00005787  00000+0  28301-3 0  9993
2 68420  97.4433  63.5619 0003582  97.4122 262.7519 15.18592725  2228
TRANSPORTER-16 OBJECT F
1 68421U 26067F   26104.13233643  .00002710  00000+0  13532-3 0  9996
2 68421  97.4464  63.5641 0002882  98.4001 261.7560 15.18330052  2225
TRANSPORTER-16 OBJECT G
1 68422U 26067G   26104.13265363  .00002336  00000+0  11720-3 0  9992
2 68422  97.4431  63.5576 0002811  94.5078 265.6477 15.18299949  2229
TRANSPORTER-16 OBJECT H
1 68423U 26067H   26104.13319345  .00002796  00000+0  13986-3 0  9999
2 68423  97.4450  63.5604 0002491 104.0414 256.1097 15.18250080  2224
TRANSPORTER-16 OBJECT J
1 68424U 26067J   26104.13828826  .00003234  00000+0  16363-3 0  9999
2 68424  97.4469  63.5565 0000052 204.7381 155.3850 15.17731330  2221
ELECTRON KICK STAGE R/B
1 68411U 26065D   26105.79805958  .04117603  26181-5  32425-3 0  9998
2 68411  97.4016 349.8080 0044365 310.0388  49.7019 16.34072450  2943
2026-066D
1 68415U 26066D   26105.83845620  .00000946  00000+0  98086-4 0  9997
2 68415  84.9624 267.4106 0027534 109.8314 250.5881 14.88427931  2459
